ALOS (DAICHI)           
1 28931U 06002A   26005.59500709  .00002125  00000+0  36611-3 0  9998
2 28931  98.1128 321.9191 0002014 101.4176 258.7256 14.69578072 64214
H-2A R/B                
1 28932U 06002B   26008.66928369  .00011194  00000+0  57780-3 0  9992
2 28932  98.2332 150.6319 0054630  85.6547 275.0923 15.15198966 85340
RESURS-DK 1             
1 29228U 06021A   26009.21464942  .00002855  00000+0  17041-3 0  9996
2 29228  69.9341  30.8228 0006445 236.2566 123.7986 15.12350830 78536
CZ-4B R/B               
1 29507U 06046C   26009.09480667  .00004050  00000+0  21002-3 0  9992
2 29507  97.5698  54.1590 0035218 113.0758 247.4193 15.16200516 51011
CZ-2C R/B               
1 31114U 07010B   26009.19508537  .00000142  00000+0  83846-4 0  9992
2 31114  98.3972 125.4645 0060064 107.0046 253.7725 14.20222984971272
COSMO-SKYMED 1          
1 31598U 07023A   26009.14684208  .00003886  00000+0  35152-3 0  9991
2 31598  97.8850 199.7304 0001609  82.2941 277.8462 14.96018056  6002
COSMOS 2428             
1 31792U 07029A   26009.20780343  .00000343  00000+0  21014-3 0  9994
2 31792  70.9389 328.2078 0005281 346.0902  14.0072 14.12905640955690
SL-16 R/B               
1 31793U 07029B   26009.18402528 -.00000106  00000+0 -30169-4 0  9999
2 31793  70.9773 297.4682 0002190 273.5686 193.9715 14.14825686956959
KORONAS-FOTON           
1 33504U 09003A   26008.62924244  .00011810  00000+0  27741-3 0  9990
2 33504  82.4323 338.2303 0012011  24.5994 335.5823 15.41794284936483
CZ-2C R/B               
1 37731U 11030B   26009.15101282  .00001187  00000+0  15654-3 0  9993
2 37731  97.8450 327.6580 0052593 182.5340 188.1422 14.80997395781281
H-2A R/B                
1 38341U 12025E   26009.15662201  .00002694  00000+0  24985-3 0  9990
2 38341  98.4635 331.5097 0045707 146.0017 214.4145 14.94645972739322
SHIJIAN-16 (SJ-16)      
1 39358U 13057A   26008.62454028  .00004145  00000+0  40905-3 0  9995
2 39358  74.9740 298.7812 0017905 257.8395 102.0787 14.92119435662546
