CCSDS_OMM_VERS = 2.0
CREATION_DATE  = 
ORIGINATOR     = 

OBJECT_NAME    = ALOS (DAICHI)
OBJECT_ID      = 2006-002A
CENTER_NAME    = EARTH
REF_FRAME      = TEME
TIME_SYSTEM    = UTC
MEAN_ELEMENT_THEORY = SGP/SGP4

EPOCH          = 2026-01-05T14:16:48.612576
MEAN_MOTION    = 14.69578072
ECCENTRICITY   = .0002014
INCLINATION    = 98.1128
RA_OF_ASC_NODE = 321.9191
ARG_OF_PERICENTER = 101.4176
MEAN_ANOMALY   = 258.7256

EPHEMERIS_TYPE = 0
CLASSIFICATION_TYPE = U
NORAD_CAT_ID   = 28931
ELEMENT_SET_NO = 999
REV_AT_EPOCH   = 6421
BSTAR          = .36611479E-3
MEAN_MOTION_DOT = .2125E-4
MEAN_MOTION_DDOT = 0

CCSDS_OMM_VERS = 2.0
CREATION_DATE  = 
ORIGINATOR     = 

OBJECT_NAME    = H-2A R/B
OBJECT_ID      = 2006-002B
CENTER_NAME    = EARTH
REF_FRAME      = TEME
TIME_SYSTEM    = UTC
MEAN_ELEMENT_THEORY = SGP/SGP4

EPOCH          = 2026-01-08T16:03:46.110816
MEAN_MOTION    = 15.15198966
ECCENTRICITY   = .00546304
INCLINATION    = 98.2332
RA_OF_ASC_NODE = 150.6319
ARG_OF_PERICENTER = 85.6547
MEAN_ANOMALY   = 275.0923

EPHEMERIS_TYPE = 0
CLASSIFICATION_TYPE = U
NORAD_CAT_ID   = 28932
ELEMENT_SET_NO = 999
REV_AT_EPOCH   = 8534
BSTAR          = .57780188E-3
MEAN_MOTION_DOT = .11194E-3
MEAN_MOTION_DDOT = 0

CCSDS_OMM_VERS = 2.0
CREATION_DATE  = 
ORIGINATOR     = 

OBJECT_NAME    = RESURS-DK 1
OBJECT_ID      = 2006-021A
CENTER_NAME    = EARTH
REF_FRAME      = TEME
TIME_SYSTEM    = UTC
MEAN_ELEMENT_THEORY = SGP/SGP4

EPOCH          = 2026-01-09T05:09:05.709888
MEAN_MOTION    = 15.12350830
ECCENTRICITY   = .0006445
INCLINATION    = 69.9341
RA_OF_ASC_NODE = 30.8228
ARG_OF_PERICENTER = 236.2566
MEAN_ANOMALY   = 123.7986

EPHEMERIS_TYPE = 0
CLASSIFICATION_TYPE = U
NORAD_CAT_ID   = 29228
ELEMENT_SET_NO = 999
REV_AT_EPOCH   = 7853
BSTAR          = .17041E-3
MEAN_MOTION_DOT = .2855E-4
MEAN_MOTION_DDOT = 0

CCSDS_OMM_VERS = 2.0
CREATION_DATE  = 
ORIGINATOR     = 

OBJECT_NAME    = CZ-4B R/B
OBJECT_ID      = 2006-046C
CENTER_NAME    = EARTH
REF_FRAME      = TEME
TIME_SYSTEM    = UTC
MEAN_ELEMENT_THEORY = SGP/SGP4

EPOCH          = 2026-01-09T02:16:31.296288
MEAN_MOTION    = 15.16200516
ECCENTRICITY   = .0035218
INCLINATION    = 97.5698
RA_OF_ASC_NODE = 54.1590
ARG_OF_PERICENTER = 113.0758
MEAN_ANOMALY   = 247.4193

EPHEMERIS_TYPE = 0
CLASSIFICATION_TYPE = U
NORAD_CAT_ID   = 29507
ELEMENT_SET_NO = 999
REV_AT_EPOCH   = 5101
BSTAR          = .21002E-3
MEAN_MOTION_DOT = .405E-4
MEAN_MOTION_DDOT = 0

CCSDS_OMM_VERS = 2.0
CREATION_DATE  = 
ORIGINATOR     = 

OBJECT_NAME    = CZ-2C R/B
OBJECT_ID      = 2007-010B
CENTER_NAME    = EARTH
REF_FRAME      = TEME
TIME_SYSTEM    = UTC
MEAN_ELEMENT_THEORY = SGP/SGP4

EPOCH          = 2026-01-09T04:40:55.375968
MEAN_MOTION    = 14.20222984
ECCENTRICITY   = .0060064
INCLINATION    = 98.3972
RA_OF_ASC_NODE = 125.4645
ARG_OF_PERICENTER = 107.0046
MEAN_ANOMALY   = 253.7725

EPHEMERIS_TYPE = 0
CLASSIFICATION_TYPE = U
NORAD_CAT_ID   = 31114
ELEMENT_SET_NO = 999
REV_AT_EPOCH   = 97127
BSTAR          = .83846E-4
MEAN_MOTION_DOT = .142E-5
MEAN_MOTION_DDOT = 0

CCSDS_OMM_VERS = 2.0
CREATION_DATE  = 
ORIGINATOR     = 

OBJECT_NAME    = COSMO-SKYMED 1
OBJECT_ID      = 2007-023A
CENTER_NAME    = EARTH
REF_FRAME      = TEME
TIME_SYSTEM    = UTC
MEAN_ELEMENT_THEORY = SGP/SGP4

EPOCH          = 2026-01-09T03:31:27.155712
MEAN_MOTION    = 14.96018056
ECCENTRICITY   = .0001609
INCLINATION    = 97.8850
RA_OF_ASC_NODE = 199.7304
ARG_OF_PERICENTER = 82.2941
MEAN_ANOMALY   = 277.8462

EPHEMERIS_TYPE = 0
CLASSIFICATION_TYPE = U
NORAD_CAT_ID   = 31598
ELEMENT_SET_NO = 999
REV_AT_EPOCH   = 600
BSTAR          = .35152E-3
MEAN_MOTION_DOT = .3886E-4
MEAN_MOTION_DDOT = 0

CCSDS_OMM_VERS = 2.0
CREATION_DATE  = 
ORIGINATOR     = 

OBJECT_NAME    = COSMOS 2428
OBJECT_ID      = 2007-029A
CENTER_NAME    = EARTH
REF_FRAME      = TEME
TIME_SYSTEM    = UTC
MEAN_ELEMENT_THEORY = SGP/SGP4

EPOCH          = 2026-01-09T04:59:14.216352
MEAN_MOTION    = 14.12905640
ECCENTRICITY   = .0005281
INCLINATION    = 70.9389
RA_OF_ASC_NODE = 328.2078
ARG_OF_PERICENTER = 346.0902
MEAN_ANOMALY   = 14.0072

EPHEMERIS_TYPE = 0
CLASSIFICATION_TYPE = U
NORAD_CAT_ID   = 31792
ELEMENT_SET_NO = 999
REV_AT_EPOCH   = 95569
BSTAR          = .21014E-3
MEAN_MOTION_DOT = .343E-5
MEAN_MOTION_DDOT = 0

CCSDS_OMM_VERS = 2.0
CREATION_DATE  = 
ORIGINATOR     = 

OBJECT_NAME    = SL-16 R/B
OBJECT_ID      = 2007-029B
CENTER_NAME    = EARTH
REF_FRAME      = TEME
TIME_SYSTEM    = UTC
MEAN_ELEMENT_THEORY = SGP/SGP4

EPOCH          = 2026-01-09T04:24:59.784192
MEAN_MOTION    = 14.14825686
ECCENTRICITY   = .000219
INCLINATION    = 70.9773
RA_OF_ASC_NODE = 297.4682
ARG_OF_PERICENTER = 273.5686
MEAN_ANOMALY   = 193.9715

EPHEMERIS_TYPE = 0
CLASSIFICATION_TYPE = U
NORAD_CAT_ID   = 31793
ELEMENT_SET_NO = 999
REV_AT_EPOCH   = 95695
BSTAR          = -.30169E-4
MEAN_MOTION_DOT = -.106E-5
MEAN_MOTION_DDOT = 0

CCSDS_OMM_VERS = 2.0
CREATION_DATE  = 
ORIGINATOR     = 

OBJECT_NAME    = KORONAS-FOTON
OBJECT_ID      = 2009-003A
CENTER_NAME    = EARTH
REF_FRAME      = TEME
TIME_SYSTEM    = UTC
MEAN_ELEMENT_THEORY = SGP/SGP4

EPOCH          = 2026-01-08T15:06:06.546816
MEAN_MOTION    = 15.41794284
ECCENTRICITY   = .0012011
INCLINATION    = 82.4323
RA_OF_ASC_NODE = 338.2303
ARG_OF_PERICENTER = 24.5994
MEAN_ANOMALY   = 335.5823

EPHEMERIS_TYPE = 0
CLASSIFICATION_TYPE = U
NORAD_CAT_ID   = 33504
ELEMENT_SET_NO = 999
REV_AT_EPOCH   = 93648
BSTAR          = .27741285E-3
MEAN_MOTION_DOT = .1181E-3
MEAN_MOTION_DDOT = 0

CCSDS_OMM_VERS = 2.0
CREATION_DATE  = 
ORIGINATOR     = 

OBJECT_NAME    = CZ-2C R/B
OBJECT_ID      = 2011-030B
CENTER_NAME    = EARTH
REF_FRAME      = TEME
TIME_SYSTEM    = UTC
MEAN_ELEMENT_THEORY = SGP/SGP4

EPOCH          = 2026-01-09T03:37:27.507648
MEAN_MOTION    = 14.80997395
ECCENTRICITY   = .0052593
INCLINATION    = 97.8450
RA_OF_ASC_NODE = 327.6580
ARG_OF_PERICENTER = 182.5340
MEAN_ANOMALY   = 188.1422

EPHEMERIS_TYPE = 0
CLASSIFICATION_TYPE = U
NORAD_CAT_ID   = 37731
ELEMENT_SET_NO = 999
REV_AT_EPOCH   = 78128
BSTAR          = .15654E-3
MEAN_MOTION_DOT = .1187E-4
MEAN_MOTION_DDOT = 0

CCSDS_OMM_VERS = 2.0
CREATION_DATE  = 
ORIGINATOR     = 

OBJECT_NAME    = H-2A R/B
OBJECT_ID      = 2012-025E
CENTER_NAME    = EARTH
REF_FRAME      = TEME
TIME_SYSTEM    = UTC
MEAN_ELEMENT_THEORY = SGP/SGP4

EPOCH          = 2026-01-09T03:45:32.141664
MEAN_MOTION    = 14.94645972
ECCENTRICITY   = .0045707
INCLINATION    = 98.4635
RA_OF_ASC_NODE = 331.5097
ARG_OF_PERICENTER = 146.0017
MEAN_ANOMALY   = 214.4145

EPHEMERIS_TYPE = 0
CLASSIFICATION_TYPE = U
NORAD_CAT_ID   = 38341
ELEMENT_SET_NO = 999
REV_AT_EPOCH   = 73932
BSTAR          = .24985E-3
MEAN_MOTION_DOT = .2694E-4
MEAN_MOTION_DDOT = 0

CCSDS_OMM_VERS = 2.0
CREATION_DATE  = 
ORIGINATOR     = 

OBJECT_NAME    = SHIJIAN-16 (SJ-16)
OBJECT_ID      = 2013-057A
CENTER_NAME    = EARTH
REF_FRAME      = TEME
TIME_SYSTEM    = UTC
MEAN_ELEMENT_THEORY = SGP/SGP4

EPOCH          = 2026-01-08T14:59:20.280192
MEAN_MOTION    = 14.92119435
ECCENTRICITY   = .00179051
INCLINATION    = 74.9740
RA_OF_ASC_NODE = 298.7812
ARG_OF_PERICENTER = 257.8395
MEAN_ANOMALY   = 102.0787

EPHEMERIS_TYPE = 0
CLASSIFICATION_TYPE = U
NORAD_CAT_ID   = 39358
ELEMENT_SET_NO = 999
REV_AT_EPOCH   = 66254
BSTAR          = .40905454E-3
MEAN_MOTION_DOT = .4145E-4
MEAN_MOTION_DDOT = 0

